*******************************************************************************
JPL/HORIZONS                148 Gallia (A875 PA)           2023-Sep-04 11:04:40
Rec #:     148 (+COV) Soln.date: 2023-Aug-22_03:19:22   # obs: 4411 (1879-2023)
 
IAU76/J2000 helio. ecliptic osc. elements (au, days, deg., period=Julian yrs):
 
  EPOCH=  2457356.5 ! 2015-Nov-30.00 (TDB)         Residual RMS= .29244
   EC= .1848149548667972   QR= 2.261545249639993   TP= 2456894.5768235931
   OM= 145.0878711439415   W=  252.6346556318638   IN= 25.31072874783655
   A= 2.774272250382675    MA= 98.52585448293455   ADIST= 3.286999251125357
   PER= 4.62096            N= .213294893           ANGMOM= .028158489
   DAN= 2.83594            DDN= 2.53944            L= 36.0060999
   B= -24.0818265          MOID= 1.38187003        TP= 2014-Aug-25.0768235931
 
Asteroid physical parameters (km, seconds, rotational period in hours):
   GM= n.a.                RAD= 48.875             ROTPER= 20.664
   H= 7.64                 G= .150                 B-V= .858
                           ALBEDO= .164            STYP= S

ASTEROID comments: 
1: soln ref.= JPL#73, OCC=0
2: source=ORB
*******************************************************************************


*******************************************************************************
Ephemeris / API_USER Mon Sep  4 11:04:40 2023 Pasadena, USA      / Horizons
*******************************************************************************
Target body name: 148 Gallia (A875 PA)            {source: JPL#73}
Center body name: Solar System Barycenter (0)     {source: DE441}
Center-site name: BODY CENTER
*******************************************************************************
Start time      : A.D. 2023-Aug-12 00:00:00.0000 TDB
Stop  time      : A.D. 2023-Aug-13 00:00:00.0000 TDB
Step-size       : 2880 minutes
*******************************************************************************
Center geodetic : 0.0, 0.0, 0.0                   {E-lon(deg),Lat(deg),Alt(km)}
Center cylindric: 0.0, 0.0, 0.0                   {E-lon(deg),Dxy(km),Dz(km)}
Center radii    : (undefined)
Small perturbers: Yes                             {source: SB441-N16}
Output units    : KM-S
Calendar mode   : Mixed Julian/Gregorian
Output type     : GEOMETRIC cartesian states
Output format   : 2 (position and velocity)
Reference frame : Ecliptic of J2000.0
*******************************************************************************
Initial IAU76/J2000 heliocentric ecliptic osculating elements (au, days, deg.):
  EPOCH=  2457356.5 ! 2015-Nov-30.00 (TDB)         Residual RMS= .29244        
   EC= .1848149548667972   QR= 2.261545249639993   TP= 2456894.5768235931      
   OM= 145.0878711439415   W=  252.6346556318638   IN= 25.31072874783655       
  Equivalent ICRF heliocentric cartesian coordinates (au, au/d):
   X=-2.654727167890366E+00  Y= 1.037193085159156E+00  Z= 7.110524252931630E-01
  VX=-4.911624931072071E-03 VY=-8.357678809297810E-03 VZ= 9.131672917689629E-04
Asteroid physical parameters (km, seconds, rotational period in hours):        
   GM= n.a.                RAD= 48.875             ROTPER= 20.664              
   H= 7.64                 G= .150                 B-V= .858                   
                           ALBEDO= .164            STYP= S                     
*******************************************************************************
JDTDB
   X     Y     Z
   VX    VY    VZ
*******************************************************************************
$$SOE
2460168.500000000 = A.D. 2023-Aug-12 00:00:00.0000 TDB 
 X = 3.271423587482335E+08 Y = 2.509609893412827E+07 Z =-9.879274928511900E+07
 VX=-5.189397412593892E+00 VY= 1.963931081310643E+01 VZ=-6.197976728134567E+00
$$EOE
*******************************************************************************
 
TIME

  Barycentric Dynamical Time ("TDB" or T_eph) output was requested. This
continuous coordinate time is equivalent to the relativistic proper time
of a clock at rest in a reference frame co-moving with the solar system
barycenter but outside the system's gravity well. It is the independent
variable in the solar system relativistic equations of motion.

  TDB runs at a uniform rate of one SI second per second and is independent
of irregularities in Earth's rotation.
 
CALENDAR SYSTEM

  Mixed calendar mode was active such that calendar dates after AD 1582-Oct-15
(if any) are in the modern Gregorian system. Dates prior to 1582-Oct-5 (if any)
are in the Julian calendar system, which is automatically extended for dates
prior to its adoption on 45-Jan-1 BC.  The Julian calendar is useful for
matching historical dates. The Gregorian calendar more accurately corresponds
to the Earth's orbital motion and seasons. A "Gregorian-only" calendar mode is
available if such physical events are the primary interest.

REFERENCE FRAME AND COORDINATES

  Ecliptic at the standard reference epoch

    Reference epoch: J2000.0
    X-Y plane: adopted Earth orbital plane at the reference epoch
               Note: IAU76 obliquity of 84381.448 arcseconds wrt ICRF X-Y plane
    X-axis   : ICRF
    Z-axis   : perpendicular to the X-Y plane in the directional (+ or -) sense
               of Earth's north pole at the reference epoch.

  Symbol meaning:

    JDTDB    Julian Day Number, Barycentric Dynamical Time
      X      X-component of position vector (km)
      Y      Y-component of position vector (km)
      Z      Z-component of position vector (km)
      VX     X-component of velocity vector (km/sec)                           
      VY     Y-component of velocity vector (km/sec)                           
      VZ     Z-component of velocity vector (km/sec)                           

ABERRATIONS AND CORRECTIONS

 Geometric state vectors have NO corrections or aberrations applied.

Computations by ...

    Solar System Dynamics Group, Horizons On-Line Ephemeris System
    4800 Oak Grove Drive, Jet Propulsion Laboratory
    Pasadena, CA  91109   USA

    General site: https://ssd.jpl.nasa.gov/
    Mailing list: https://ssd.jpl.nasa.gov/email_list.html
    System news : https://ssd.jpl.nasa.gov/horizons/news.html
    User Guide  : https://ssd.jpl.nasa.gov/horizons/manual.html
    Connect     : browser        https://ssd.jpl.nasa.gov/horizons/app.html#/x
                  API            https://ssd-api.jpl.nasa.gov/doc/horizons.html
                  command-line   telnet ssd.jpl.nasa.gov 6775
                  e-mail/batch   https://ssd.jpl.nasa.gov/ftp/ssd/hrzn_batch.txt
                  scripts        https://ssd.jpl.nasa.gov/ftp/ssd/SCRIPTS
    Author      : Jon.D.Giorgini@jpl.nasa.gov
*******************************************************************************
